OBJECT_NAME,OBJECT_ID,EPOCH,MEAN_MOTION,ECCENTRICITY,INCLINATION,RA_OF_ASC_NODE,ARG_OF_PERICENTER,MEAN_ANOMALY,EPHEMERIS_TYPE,CLASSIFICATION_TYPE,NORAD_CAT_ID,ELEMENT_SET_NO,REV_AT_EPOCH,BSTAR,MEAN_MOTION_DOT,MEAN_MOTION_DDOT
OPS 6582 (TRANSIT 5B-5),1964-083D,2026-07-23T11:07:57.359712,13.57015679,.00419239,90.0764,203.3296,168.9183,343.9137,0,U,965,999,4853,.75519456E-4,.63E-6,0
LES-1,1965-008C,2026-07-23T14:57:44.543808,9.88354810,.00151988,32.1473,318.4013,41.1549,319.0092,0,U,1002,999,21979,.39642818E-3,.11E-6,0
SOLRAD 7B,1965-016D,2026-07-23T07:43:57.451008,13.94979333,.00185401,70.0787,159.4406,71.1743,289.1372,0,U,1291,999,12174,.46899541E-4,.11E-6,0
SECOR 4 (EGRS 4),1965-027B,2026-07-23T11:20:35.725344,12.92668350,.00328426,90.2499,16.3940,104.9024,282.3844,0,U,1315,999,89161,.30682714E-3,.91E-6,0
TIROS 10,1965-051A,2026-07-23T08:12:45.218592,14.41641479,.00546176,98.5072,323.5209,331.6069,28.2146,0,U,1430,999,20112,.42474829E-4,.95E-6,0
ALOUETTE 2,1965-098A,2026-07-23T05:58:37.155360,12.28380628,.13310244,79.7954,245.9684,159.4088,206.6315,0,U,1804,999,68370,.13805362E-3,.439E-5,0
OV3-3,1966-070A,2026-07-23T13:32:43.030752,13.46387260,.10078413,81.3263,298.8992,63.2591,306.8071,0,U,2389,999,60386,.4690792E-3,.10605E-3,0
SECOR 7 (EGRS 7),1966-077B,2026-07-21T04:42:18.891072,8.59615348,.00108792,90.3346,277.8424,22.3907,337.7418,0,U,2411,999,88030,-.6639388E-2,-.12E-6,0
ERS 15,1966-077C,2026-07-23T04:42:43.500384,8.59079610,.00067323,90.3377,277.6601,34.1119,326.0164,0,U,2412,999,39355,0,.2E-7,0
ISIS 1,1969-009A,2026-07-23T13:44:10.741056,11.30437588,.17072674,88.4457,140.4054,174.7452,187.4395,0,U,3669,999,36388,.50017056E-4,.84E-6,0
SECOR 13 (EGRS 13),1969-037B,2026-07-23T14:14:21.322176,13.42978179,.00397053,99.6434,74.4915,160.8432,232.3044,0,U,3891,999,80664,.17520923E-4,-.32E-6,0
ATS 5,1969-069A,2026-07-23T13:10:15.585600,0.99490636,.00053487,0.3062,135.5228,139.0177,263.5518,0,U,4068,999,4669,0,.107E-5,0
OPS 7613 (P/L 4),1969-082E,2026-07-23T00:20:02.573952,13.96001182,.00179736,70.0150,27.3539,82.3513,80.3442,0,U,4237,999,89130,.3824719E-4,0,0
OPS 7613 (P/L 1),1969-082B,2026-07-23T09:49:24.629376,13.99204026,.00189574,70.0077,247.2005,9.7614,350.3858,0,U,4256,999,89553,.41581085E-4,.7E-7,0
SHINSEI (MS-F2),1971-080A,2026-07-23T14:33:20.558880,12.74255413,.06402948,32.0592,305.5466,279.8792,73.0139,0,U,5485,999,55390,.85279176E-4,.72E-6,0
PROSPERO (BLACK ARROW),1971-093A,2026-07-23T13:32:01.856832,14.01707172,.05022641,82.0365,258.8994,122.7799,242.2802,0,U,5580,999,75362,.2546369E-3,.1222E-4,0
OPS 7898 (P/L 2),1971-110C,2026-07-23T07:56:59.436672,13.74761321,.00058718,69.9902,288.3295,138.3509,221.8033,0,U,5680,999,35318,.19951291E-4,-.31E-6,0
NOAA 2 (ITOS-D),1972-082A,2026-07-23T08:29:44.748096,12.53216163,.00045889,102.0077,223.3215,101.4290,270.1900,0,U,6235,999,45948,.11958569E-3,-.27E-6,0
OSCAR 7 (AO-7),1974-089B,2026-07-23T06:43:13.078272,12.53698643,.00126097,101.9909,217.9030,63.4131,306.8461,0,U,7530,999,36504,.41374086E-4,-.4E-6,0
TIROS N,1978-096A,2026-07-23T12:18:16.796160,14.19384247,.00113532,98.4531,223.9196,132.7442,227.4692,0,U,11060,999,68390,.63540534E-4,.92E-6,0
PHASE 3B (AO-10),1983-058B,2026-07-22T19:33:03.573216,2.05869117,.59989465,25.9436,213.6999,125.4549,306.1498,0,U,14129,999,29622,0,.116E-5,0
HILAT,1983-063A,2026-07-23T06:37:50.251584,14.38731191,.00390404,82.0255,127.4784,179.1649,303.5789,0,U,14154,999,25277,.87932562E-4,.288E-5,0
UOSAT 2 (UO-11),1984-021B,2026-07-22T06:10:17.951808,14.90861576,.00091187,97.8082,168.4468,71.8134,288.4076,0,U,14781,999,26235,.12392881E-3,.1166E-4,0
NOAA 9,1984-123A,2026-07-23T01:43:24.633696,14.17076462,.00136631,99.0982,231.5398,246.6113,174.4155,0,U,15427,999,14850,.55232823E-4,.65E-6,0
GEOSAT,1985-021A,2026-07-23T08:13:21.462528,14.39981962,.00019644,108.0409,156.6829,293.8972,66.1964,0,U,15595,999,16797,.76508496E-4,.105E-5,0
EUTELSAT 1-F4 (ECS 4),1987-078B,2026-07-23T08:21:02.752128,0.98688023,.00096375,13.8028,341.8696,46.6006,143.0160,0,U,18351,999,12711,0,-.101E-5,0
PACSAT (AO-16),1990-005D,2026-07-23T09:04:48.004032,14.33946653,.00115651,98.8509,240.9038,122.6331,248.0650,0,U,20439,999,90712,.48741924E-4,.9E-6,0
LUSAT (LO-19),1990-005G,2026-07-23T12:45:07.496064,14.34132489,.00126909,98.8846,227.3370,99.0495,261.2126,0,U,20442,999,90760,.47157672E-4,.85E-6,0
IRS-1B,1991-061A,2026-07-23T00:59:38.089248,13.97882074,.00232391,99.4126,212.8826,266.1812,111.7475,0,U,21688,999,67350,.11436322E-3,.115E-5,0
COSMOS 2197,1992-042A,2026-07-23T09:59:17.644416,12.64252979,.00124653,82.5921,205.7846,185.9676,333.0258,0,U,22034,999,56986,.16282193E-3,.41E-6,0
