{"epoch":1784838743,"count":18315,"objects":[{"id":"965","name":"OPS 6582 (TRANSIT 5B-5)","type":"PAYLOAD","l1":"1 00965U 64083D   26204.46385833  .00000063  00000-0  75519-4 0  9995","l2":"2 00965  90.0764 203.3296 0041924 168.9183 343.9137 13.57015679 48533"},{"id":"1002","name":"LES 1","type":"PAYLOAD","l1":"1 01002U 65008C   26204.62343222  .00000011  00000-0  39643-3 0  9990","l2":"2 01002  32.1473 318.4013 0015199  41.1549 319.0092  9.88354810219792"},{"id":"1291","name":"SOLRAD 7B","type":"PAYLOAD","l1":"1 01291U 65016D   26204.32219272  .00000011  00000-0  46900-4 0  9998","l2":"2 01291  70.0787 159.4406 0018540  71.1743 289.1372 13.94979333121742"},{"id":"1315","name":"SECOR 4 (EGRS 4)","type":"PAYLOAD","l1":"1 01315U 65027B   26204.47263571  .00000091  00000-0  30683-3 0  9992","l2":"2 01315  90.2499  16.3940 0032843 104.9024 282.3844 12.92668350891616"},{"id":"1430","name":"TIROS 10","type":"PAYLOAD","l1":"1 01430U 65051A   26204.34219003  .00000095  00000-0  42475-4 0  9991","l2":"2 01430  98.5072 323.5209 0054618 331.6069  28.2146 14.41641479201127"},{"id":"1804","name":"ALOUETTE 2","type":"PAYLOAD","l1":"1 01804U 65098A   26204.24904115  .00000439  00000-0  13805-3 0  9997","l2":"2 01804  79.7954 245.9684 1331024 159.4088 206.6315 12.28380628683700"},{"id":"2389","name":"OV3-3","type":"PAYLOAD","l1":"1 02389U 66070A   26204.56438693  .00010605  00000-0  46908-3 0  9991","l2":"2 02389  81.3263 298.8992 1007841  63.2591 306.8071 13.46387260603869"},{"id":"2411","name":"SECOR 7 (EGRS 7)","type":"PAYLOAD","l1":"1 02411U 66077B   26202.19605198 -.00000012  00000-0 -66394-2 0  9990","l2":"2 02411  90.3346 277.8424 0010879  22.3907 337.7418  8.59615348880308"},{"id":"2412","name":"ERS 15","type":"PAYLOAD","l1":"1 02412U 66077C   26204.19633681  .00000002  00000-0  00000-0 0  9998","l2":"2 02412  90.3377 277.6601 0006732  34.1119 326.0164  8.59079610393558"},{"id":"3669","name":"ISIS 1","type":"PAYLOAD","l1":"1 03669U 69009A   26204.57234654  .00000084  00000-0  50017-4 0  9997","l2":"2 03669  88.4457 140.4054 1707267 174.7452 187.4395 11.30437588363885"},{"id":"3891","name":"SECOR 13 (EGRS 13)","type":"PAYLOAD","l1":"1 03891U 69037B   26204.59330234 -.00000032  00000-0  17521-4 0  9995","l2":"2 03891  99.6434  74.4915 0039705 160.8432 232.3044 13.42978179806649"},{"id":"4068","name":"ATS 5","type":"PAYLOAD","l1":"1 04068U 69069A   26204.54879150  .00000107  00000-0  00000-0 0  9999","l2":"2 04068   0.3062 135.5228 0005349 139.0177 263.5518  0.99490636 46697"},{"id":"4237","name":"OPS 7613 (P/L 4)","type":"PAYLOAD","l1":"1 04237U 69082E   26204.01391868  .00000000  00000-0  38247-4 0  9999","l2":"2 04237  70.0150  27.3539 0017974  82.3513  80.3442 13.96001182891303"},{"id":"4256","name":"OPS 7613 (P/L 1)","type":"PAYLOAD","l1":"1 04256U 69082B   26204.40931284  .00000007  00000-0  41581-4 0  9997","l2":"2 04256  70.0077 247.2005 0018957   9.7614 350.3858 13.99204026895535"},{"id":"5485","name":"SHINSEI (MS-F2)","type":"PAYLOAD","l1":"1 05485U 71080A   26204.60648795  .00000072  00000-0  85279-4 0  9991","l2":"2 05485  32.0592 305.5466 0640295 279.8792  73.0139 12.74255413553903"},{"id":"5580","name":"PROSPERO (BLACK ARROW)","type":"PAYLOAD","l1":"1 05580U 71093A   26204.56391038  .00001222  00000-0  25464-3 0  9998","l2":"2 05580  82.0365 258.8994 0502264 122.7799 242.2802 14.01707172753628"},{"id":"5680","name":"OPS 7898 (P/L 2)","type":"PAYLOAD","l1":"1 05680U 71110C   26204.33124348 -.00000031  00000-0  19951-4 0  9995","l2":"2 05680  69.9902 288.3295 0005872 138.3509 221.8033 13.74761321353188"},{"id":"6235","name":"NOAA 2 (ITOS-D)","type":"PAYLOAD","l1":"1 06235U 72082A   26204.35399014 -.00000027  00000-0  11959-3 0  9991","l2":"2 06235 102.0077 223.3215 0004589 101.4290 270.1900 12.53216163459485"},{"id":"7530","name":"OSCAR 7","type":"PAYLOAD","l1":"1 07530U 74089B   26204.28001248 -.00000040  00000-0  41374-4 0  9990","l2":"2 07530 101.9909 217.9030 0012610  63.4131 306.8461 12.53698643365049"},{"id":"11060","name":"TIROS N","type":"PAYLOAD","l1":"1 11060U 78096A   26204.51269440  .00000092  00000-0  63541-4 0  9997","l2":"2 11060  98.4531 223.9196 0011353 132.7442 227.4692 14.19384247683909"},{"id":"14129","name":"OSCAR 10","type":"PAYLOAD","l1":"1 14129U 83058B   26203.81462469  .00000116  00000-0  00000-0 0  9992","l2":"2 14129  25.9436 213.6999 5998947 125.4549 306.1498  2.05869117296229"},{"id":"14154","name":"HILAT","type":"PAYLOAD","l1":"1 14154U 83063A   26204.27627606  .00000288  00000-0  87933-4 0  9997","l2":"2 14154  82.0255 127.4784 0039040 179.1649 303.5789 14.38731191252771"},{"id":"14781","name":"OSCAR 11 (UOSAT 2)","type":"PAYLOAD","l1":"1 14781U 84021B   26203.25715222  .00001166  00000-0  12393-3 0  9990","l2":"2 14781  97.8082 168.4468 0009119  71.8134 288.4076 14.90861576262358"},{"id":"15427","name":"NOAA 9","type":"PAYLOAD","l1":"1 15427U 84123A   26204.07181289  .00000065  00000-0  55233-4 0  9990","l2":"2 15427  99.0982 231.5398 0013663 246.6113 174.4155 14.17076462148504"},{"id":"15595","name":"GEOSAT","type":"PAYLOAD","l1":"1 15595U 85021A   26204.34260952  .00000105  00000-0  76508-4 0  9992","l2":"2 15595 108.0409 156.6829 0001964 293.8972  66.1964 14.39981962167970"},{"id":"18351","name":"EUTE 1-F4 (ECS 4)","type":"PAYLOAD","l1":"1 18351U 87078B   26204.34794852 -.00000101  00000-0  00000-0 0  9997","l2":"2 18351  13.8028 341.8696 0009637  46.6006 143.0160  0.98688023127117"},{"id":"20439","name":"OSCAR 16 (PACSAT)","type":"PAYLOAD","l1":"1 20439U 90005D   26204.37833338  .00000090  00000-0  48742-4 0  9992","l2":"2 20439  98.8509 240.9038 0011565 122.6331 248.0650 14.33946653907129"},{"id":"20442","name":"OSCAR 19 (LUSAT)","type":"PAYLOAD","l1":"1 20442U 90005G   26204.53133676  .00000085  00000-0  47158-4 0  9996","l2":"2 20442  98.8846 227.3370 0012691  99.0495 261.2126 14.34132489907607"},{"id":"21688","name":"IRS 1B","type":"PAYLOAD","l1":"1 21688U 91061A   26204.04141307  .00000115  00000-0  11436-3 0  9991","l2":"2 21688  99.4126 212.8826 0023239 266.1812 111.7475 13.97882074673508"},{"id":"22034","name":"COSMOS 2197","type":"PAYLOAD","l1":"1 22034U 92042A   26204.41617644  .00000041  00000-0  16282-3 0  9992","l2":"2 22034  82.5921 205.7846 0012465 185.9676 333.0258 12.64252979569867"}]}